#cP2023  6 20  0  0  0.00000000      96 ORBIT IGS20 HLM  IGS
## 2267 172800.00000000   900.00000000 60115 0.0000000000000
+   32   G01G02G03G04G05G06G07G08G09G10G11G12G13G14G15G16G17
+        G18G19G20G21G22G23G24G25G26G27G28G29G30G31G32  0  0
+          0  0  0  0  0  0  0  0  0  0  0  0  0  0  0  0  0
+          0  0  0  0  0  0  0  0  0  0  0  0  0  0  0  0  0
+          0  0  0  0  0  0  0  0  0  0  0  0  0  0  0  0  0
++         2  2  2  2  2  2  2  4  2  3  2  2  2  2  2  2  2
++         2  2  2  2  2  3  2  2  2  2  2  2  2  2  2  0  0
++         0  0  0  0  0  0  0  0  0  0  0  0  0  0  0  0  0
++         0  0  0  0  0  0  0  0  0  0  0  0  0  0  0  0  0
++         0  0  0  0  0  0  0  0  0  0  0  0  0  0  0  0  0
%c G  cc GPS ccc cccc cccc cccc cccc ccccc ccccc ccccc ccccc
%c cc cc ccc ccc cccc cccc cccc cccc ccccc ccccc ccccc ccccc
%f  1.2500000  1.025000000  0.00000000000  0.000000000000000
%f  0.0000000  0.000000000  0.00000000000  0.000000000000000
%i    0    0    0    0      0      0      0      0         0
%i    0    0    0    0      0      0      0      0         0
/* RAPID ORBIT COMBINATION FROM WEIGHTED AVERAGE OF:        
/* cod emr esa gfz grg jpl ngs sio usn whu                  
/* REFERENCED TO IGS TIME (IGST) AND TO WEIGHTED MEAN POLE: 
/* PCV:IGS20_2233 OL/AL:FES2014b NONE     Y  ORB:CMB CLK:CMB
*  2023  6 20 22 30  0.00000000
PG01 -13850.079528  22109.955033  -4176.090311    177.173581  3  7  7 103       
PG02 -16127.232481  20771.766442   3599.097387   -583.880567  6  8  6  91       
PG03  -9525.194991  13114.831752 -21152.607509   -263.123643  8  8  5 107       
PG04  -2828.088681  21701.741973 -14956.243193     73.814202  6  7  6  98       
PG05  23594.286695  -5625.425700  10778.335817   -131.883444  2  6  4  79       
PG06  13624.352018   5974.129580 -21952.720423    583.897893  6  6  3 113       
PG07   -925.086658  20855.569495  16597.786019    146.897934  8  5  5 102       
PG08 -10830.894898  11837.994297  21026.702086   -128.355814 12 16 12 136       
PG09   6044.391283  24973.151786  -6710.550914   -131.045925  4  6  6  95       
PG10 -20629.971295 -11235.347078  12871.530953    -41.998241  7  9  8  93       
PG11  20370.223295  -8315.645505 -14841.533542   -243.586764  7  7  5  82       
PG12  13541.960126 -11463.061556 -20016.426314   -391.072909  7  4  6 113       
PG13  14583.478910  -3270.473136  21779.248570    536.711957  4  4  4  94       
PG14  17797.098547  13372.621501  14619.869601     97.146798  6  5  4  99       
PG15   9175.029667 -13835.955150  20222.267831     50.716151  6  5  4  93       
PG16 -25590.264314    -93.524427   7624.069664   -489.400090  7  5  5  99       
PG17  13541.265862  20941.541200  -8555.549009    718.980181  5  7  5  93       
PG18   -732.342455 -19189.031918  18275.956169   -315.483613  5  7  5  93       
PG19  15711.183134  15039.765586 -15679.005916    333.291946  7  8  7  87       
PG20  26357.477309  -2003.534708   1132.806368    426.916493  7  6  2  57       
PG21 -17181.062883  18676.174985   6625.306911    152.928689  6  9  5 104       
PG22 -16299.873092 -11836.509991 -16938.310961    500.983852  7  6  9 119       
PG23  -9094.172866 -14661.251451  20241.919162     35.140859  9 10 11 104       
PG24  14564.556598 -21889.475323   1029.191876   -231.718529  6  7  4  91       
PG25   -433.806630 -15628.216130 -21799.298464    451.115830  7  5  4 105       
PG26 -25956.991074  -4739.689269  -4484.417937    238.571838  7  4  7  96       
PG27 -16064.018310   -823.361347  20956.656213     12.489640  6  6  6  89       
PG28 -13027.182940  -7914.071379 -21771.632342     83.537660  7  7  7  89       
PG29  -2387.882156 -25031.335677  -8460.253229   -603.423038  9  6  4  81       
PG30   8079.873989  14598.854529  20732.398756   -509.714050  4  3  5  88       
PG31 -19361.540494   3709.686534 -18165.699988   -218.569844  5  6  7 114       
PG32 -16008.418966 -18460.328555 -10470.978364   -504.622401  9  7  8 108       
*  2023  6 20 22 45  0.00000000
PG01 -14170.260464  22217.118535  -1264.570498    177.171510  3  8  7  87       
PG02 -16068.296149  20206.384808   6400.535570   -583.877634  6  9  6  85       
PG03 -11840.019940  12827.209416 -20117.779645   -263.111097  8  8  5  99       
PG04  -3700.926975  20084.990202 -16906.264049     73.823590  6  7  5  92       
PG05  24688.825333  -5365.459974   8203.481096   -131.884891  3  6  5  61       
PG06  12154.454157   8031.384214 -22149.682733    583.895862  6  6  4 105       
PG07  -2101.750959  22143.599793  14607.038523    146.888683  8  5  5 111       
PG08 -11979.919680   9665.366778  21541.527022   -128.357079 13 16 12 141       
PG09   5417.422680  24264.673203  -9356.637892   -131.037928  4  7  6  94       
PG10 -19065.228292 -11228.914777  15098.655819    -41.999895  8 10  9 105       
PG11  19385.574766  -6784.155076 -16811.501168   -243.600508  8  7  6  75       
PG12  15657.448350 -11007.173782 -18657.619887   -391.077209  7  4  6 102       
PG13  15301.880903   -862.138205  21533.918775    536.716591  4  4  4  99       
PG14  16007.811949  13346.392545  16569.532053     97.157881  5  5  4 108       
PG15  10582.738771 -11819.710758  20815.464419     50.719512  6  4  4 102       
PG16 -26285.673076   -426.711037   4905.464982   -489.396354  7  5  5  93       
PG17  13653.531893  21837.961134  -5828.759322    718.981177  5  7  5 103       
PG18    560.639878 -20713.594367  16520.304171   -315.496965  6  7  5  93       
PG19  16099.756482  16622.460731 -13535.234633    333.296290  6  8  7  92       
PG20  26344.249351  -1698.025413  -1710.424439    426.914573  7  7  2  67       
PG21 -16993.915177  17779.117927   9331.011834    152.928411  5  9  6 101       
PG22 -16790.623614 -13679.220845 -15027.300248    500.989400  8  6 10 116       
PG23  -6732.251183 -14579.899814  21188.034550     35.144243  8 10 11  93       
PG24  14720.218857 -21427.509883   3835.321449   -231.730209  5  7  4 109       
PG25   1989.943345 -15432.291838 -21829.511175    451.118095  7  6  4 118       
PG26 -25301.532143  -5017.035466  -7160.870690    238.570984  8  4  7  77       
PG27 -17016.573527  -3012.085421  20030.784179     12.482883  6  6  6  94       
PG28 -11662.395732  -9987.580506 -21693.125509     83.538086  8  7  7 111       
PG29  -1817.267253 -24059.497108 -11051.058733   -603.424390  9  6  4  86       
PG30   6639.904923  16412.137482  19839.902986   -509.711760  4  3  5  99       
PG31 -18194.541394   1941.744089 -19567.400248   -218.570477  6  6  7 105       
PG32 -16263.561417 -19521.979232  -7895.904410   -504.629883  9  7  8 118       
*  2023  6 20 23  0  0.00000000
PG01 -14305.545074  22059.136286   1669.120532    177.169448  3  8  7  94       
PG02 -15895.183522  19365.922214   9092.328125   -583.874384  6  9  6  87       
PG03 -14032.613363  12671.891660 -18739.702245   -263.098555  8  8  5  91       
PG04  -4746.996714  18332.845500 -18563.795154     73.832961  6  8  5 108       
PG05  25494.825622  -5161.049452   5487.469155   -131.886112  5  6  5  85       
PG06  10802.041182  10169.551848 -21963.420715    583.893855  7  6  5 105       
PG07  -3091.408092  23289.860497  12366.371802    146.879617  8  5  6 112       
PG08 -13255.571884   7525.547467  21682.159767   -128.358844 13 16 12 143       
PG09   4612.897606  23336.739467 -11841.774800   -131.029953  4  7  6  97       
PG10 -17266.723753 -11303.220572  17072.469501    -42.001147  9 10 10 112       
PG11  18365.363736  -5032.944523 -18491.557982   -243.614213  8  7  6  78       
PG12  17626.971565 -10681.040036 -16983.780074   -391.081688  7  4  7 108       
PG13  16129.267022   1455.984337  20912.618054    536.721179  5  4  4 107       
PG14  14015.273117  13397.866430  18236.140093     97.168964  5  5  5 113       
PG15  12108.457832  -9834.302670  21034.376068     50.722754  6  4  5  97       
PG16 -26689.101284   -682.337905   2104.111124   -489.392764  7  5  5  81       
PG17  13683.332716  22436.088002  -2999.850981    718.982299  5  6  6  95       
PG18   1653.351482 -22124.767770  14478.451706   -315.510337  7  6  5 103       
PG19  16478.932068  17947.664757 -11164.933467    333.301030  6  7  7 101       
PG20  26027.953403  -1348.549173  -4523.861063    426.912315  8  7  2  69       
PG21 -16714.111252  16612.446933  11871.486681    152.927929  5  9  6 111       
PG22 -17283.672606 -15275.074890 -12851.737681    500.994389  8  6 10 118       
PG23  -4281.423127 -14627.140057  21770.638541     35.147569  8  9 11 105       
PG24  14756.173113 -20689.082795   6573.264918   -231.741851  5  7  4 112       
PG25   4406.366547 -15362.285387 -21494.385878    451.120326  7  6  4 104       
PG26 -24368.241975  -5335.942310  -9716.939868    238.570163  8  5  6  87       
PG27 -18022.323546  -5032.591063  18756.109422     12.476122  6  6  6 115       
PG28 -10422.598034 -12103.509571 -21242.074060     83.538458  8  8  7  87       
PG29  -1080.465199 -22861.489220 -13451.209150   -603.425435  9  7  3  81       
PG30   5350.775572  18193.591858  18607.192973   -509.709464  5  3  5  91       
PG31 -17044.322298     -2.725102 -20640.944582   -218.571075  6  6  7 110       
PG32 -16431.147651 -20305.226665  -5185.631297   -504.637326  8  7  8 114       
EOF
